IRIDIUM 166             
1 43570U 18061B   24183.88864061 -.00000258  00000+0 -99131-4 0  9997
2 43570  86.3973 355.6651 0002266  94.6134 265.5321 14.34216217310875
IRIDIUM 158             
1 43571U 18061C   24183.92669165  .00000210  00000+0  67757-4 0  9996
2 43571  86.3977 355.6583 0002260  89.0549 271.0906 14.34216292310847
IRIDIUM 165             
1 43572U 18061D   24184.02183441 -.00000057  00000+0 -27545-4 0  9999
2 43572  86.3974 355.6514 0002201  89.0446 271.1002 14.34216845310886
IRIDIUM 155             
1 43573U 18061E   24183.91400734  .00000204  00000+0  65688-4 0  9996
2 43573  86.3974 355.6009 0002320  94.6353 265.5108 14.34219384310837
IRIDIUM 154             
1 43574U 18061F   24184.17405371  .00000145  00000+0  44627-4 0  9992
2 43574  86.3977 355.5905 0001974  88.4418 271.7004 14.34218808310926
IRIDIUM 163             
1 43575U 18061G   24183.87595380 -.00000016  00000+0 -12702-4 0  9997
2 43575  86.3973 355.6529 0002058  91.1801 268.9630 14.34217289310854
IRIDIUM 156             
1 43576U 18061H   24184.19942735  .00000042  00000+0  80934-5 0  9994
2 43576  86.3976 355.5242 0002358  89.1532 270.9934 14.34215777310883
IRIDIUM 164             
1 43577U 18061J   24184.18039773  .00000163  00000+0  51295-4 0  9994
2 43577  86.3977 355.5612 0002152  82.2833 277.8607 14.34218364310930
